
STARLINK-1657           
1 46354U 20062AF  25043.14743538  .00018789  00000+0  12775-2 0  9997
2 46354  53.0556 329.8302 0001949 102.9916 257.1291 15.06381619245622
STARLINK-1661           
1 46355U 20062AG  25043.18798223  .00002319  00000+0  17458-3 0  9999
2 46355  53.0555 329.6483 0001452 101.0941 259.0211 15.06391004245630
STARLINK-1665           
1 46356U 20062AH  25043.07003670  .00003397  00000+0  24699-3 0  9995
2 46356  53.0576 330.2178 0001785  96.1998 263.9195 15.06381392245610
STARLINK-1666           
1 46357U 20062AJ  25043.46259209  .00001837  00000+0  14220-3 0  9996
2 46357  53.0559 308.4168 0001269  88.0874 272.0260 15.06396425245952
STARLINK-1707           
1 46359U 20062AL  25043.09012819  .00012666  00000+0  86191-3 0  9999
2 46359  53.0543 285.0808 0001704  91.7425 268.3759 15.06647484246243
STARLINK-1713           
1 46360U 20062AM  25043.04654533 -.00003688  00000+0 -22892-3 0  9995
2 46360  53.0543 285.2897 0001307 103.3129 256.8005 15.06385012246247
STARLINK-1722           
1 46361U 20062AN  25042.99073141  .01676785  22196-2  15645-2 0  9992
2 46361  53.0360 249.1683 0007163 220.0668 289.1830 16.12010422246623
STARLINK-1726           
1 46362U 20062AP  25043.39301269 -.00000226  00000+0  37272-5 0  9994
2 46362  53.0545 283.7301 0001475  86.3687 273.7470 15.06399423246299
STARLINK-1739           
1 46363U 20062AQ  25043.31814362  .00151664  00000+0  31641-2 0  9993
2 46363  53.0397 265.6947 0012825 115.9211 244.3118 15.44445577246515
STARLINK-1763           
1 46364U 20062AR  25043.58336806  .00531931  00000+0  21522-2 0  9991
2 46364  53.0404 232.9731 0009061 186.4295  61.2287 15.84352117246947
STARLINK-1651           
1 46366U 20062AT  25043.35245241  .00000527  00000+0  54285-4 0  9996
2 46366  53.0547 283.9049 0001524  79.2719 280.8441 15.06409101246289
STARLINK-1689           
1 46372U 20062AZ  25043.47202263  .00075245  00000+0  25930-2 0  9995
2 46372  53.0486 312.5236 0009450 101.2601 258.9460 15.29324311245906
STARLINK-1711           
1 46374U 20062BB  25043.58336806  .00754340  26992-3  14970-2 0  9994
2 46374  53.0302 208.8395 0005456 262.6302 271.9726 15.99357163247269
STARLINK-1724           
1 46375U 20062BC  25042.94699095  .00011849  00000+0  81231-3 0  9999
2 46375  53.0536 285.7299 0001549 107.8948 252.2210 15.06431273246049
STARLINK-1742           
1 46376U 20062BD  25042.89262471  .00012850  00000+0  86599-3 0  9993
2 46376  53.0538 285.9446 0001341  94.8668 265.2474 15.06997265246035
STARLINK-1769           
1 46382U 20062BK  25043.37458120  .00002126  00000+0  16160-3 0  9994
2 46382  53.0539 283.8116 0001337  95.2056 264.9086 15.06397415246266
STARLINK-1770           
1 46383U 20062BL  25042.83044483 -.00008030  00000+0 -52080-3 0  9991
2 46383  53.0562 331.2525 0001570  99.4056 260.7110 15.06399324245396
STARLINK-1771           
1 46384U 20062BM  25043.16586047  .00001435  00000+0  11520-3 0  9990
2 46384  53.0552 329.7470 0001555  98.1230 261.9935 15.06398537245629
GAOFEN-11 02            
1 46396U 20064A   25043.48469113  .00012737  00000+0  53053-3 0  9998
2 46396  97.4594 165.6551 0009886 253.9716 106.0432 15.23819836246971
JILIN-1 GAOFEN 3B       
1 46454U 20065A   25043.49275347  .00024800  00000+0  70422-3 0  9992
2 46454  97.3051  91.7251 0006920 104.8926 255.3085 15.36160911244227
JILIN-1 GAOFEN 3C       
1 46455U 20065B   25043.52240351  .00028416  00000+0  72559-3 0  9994
2 46455  97.3013  91.1724 0004410 117.5910 242.5784 15.39436894244257
JILIN-1 GAOFEN 3D       
1 46456U 20065C   25043.54553387  .00033540  00000+0  82303-3 0  9995
2 46456  97.3092  93.6925 0005512 118.1573 242.0231 15.40611628244299
JILIN-1 GAOFEN 3E       
1 46457U 20065D   25043.51428239  .00019802  00000+0  66303-3 0  9997
2 46457  97.3062  91.2676 0025047 139.6751 220.6354 15.30675655244180
JILIN-1 GAOFEN 3F       
1 46458U 20065E   25043.44800864  .00019330  00000+0  65640-3 0  9997
2 46458  97.2996  89.7509 0026975 126.8647 233.5073 15.30175103244179
JILIN-1 GAOFEN 3G       
1 46459U 20065F   25043.53296893  .00023078  00000+0  69550-3 0  9997
2 46459  97.3111  93.1353 0017348  19.7032 340.4878 15.34174133244232
JILIN-1 GAOFEN 3H       
1 46460U 20065G   25043.55213471  .00021989  00000+0  67610-3 0  9996
2 46460  97.3018  90.6510 0013518 305.8017  54.1969 15.33608326244228
JILIN-1 GAOFEN 3I       
1 46461U 20065H   25043.51418122  .00025606  00000+0  71088-3 0  9997
2 46461  97.3095  92.7935 0015805  77.3516 282.9495 15.36755506244236
JILIN-1 GAOFEN 3J       
1 46462U 20065J   25043.54370933  .00025078  00000+0  73126-3 0  9996
2 46462  97.3055  91.9034 0007473 109.7947 250.4103 15.35321737244245
HAIYANG-2C              
1 46469U 20066A   25043.44098590  .00000033  00000+0  10354-3 0  9997
2 46469  65.9985 354.6443 0006165 300.4543  59.5916 13.83367194222049
HJ-2A                   
1 46478U 20067A   25043.47824378  .00001187  00000+0  17787-3 0  9990
2 46478  97.9216 127.2550 0003845  45.2983 314.8540 14.76431873235995
HJ-2B                   
1 46479U 20067B   25043.51462954  .00001725  00000+0  25465-3 0  9994
2 46479  97.9262 127.9819 0003520 132.0310 228.1200 14.76541381236000
GONETS-M 17             
1 46486U 20068A   25043.46095854  .00000068  00000+0  41554-3 0  9994
2 46486  82.4973 292.1458 0023619  24.7831 335.4377 12.42887708198513
GONETS-M 18             
1 46487U 20068B   25043.42737298  .00000072  00000+0  44583-3 0  9996
2 46487  82.4926 291.4739 0020771  21.8710 338.3252 12.42876580198505
GONETS-M 19             
1 46488U 20068C   25043.15822824  .00000071  00000+0  43902-3 0  9990
2 46488  82.4952 291.9857 0014696  37.4098 322.8002 12.42902167198481
MEZNSAT                 
1 46489U 20068D   25042.90597328  .00095414  00000+0  12597-2 0  9991
2 46489  97.8263  30.8099 0009667 132.6726 227.5345 15.58002216241647
YARILO 1                
1 46490U 20068E   25043.46826845  .00397957  00000+0  19723-2 0  9999
2 46490  97.8247  35.5939 0010002 127.7628 232.4546 15.80902083241988
DEKART                  
1 46493U 20068H   25043.51032423  .00013592  00000+0  57453-3 0  9992
2 46493  97.8467  18.7420 0011758 195.2093 164.8791 15.23301403240871
NORBI                   
1 46494U 20068J   25043.51904867  .00017604  00000+0  66820-3 0  9999
2 46494  97.8456  20.5980 0010926 187.4796 172.6281 15.26855827240992
SALSAT                  
1 46495U 20068K   25042.89170134  .00010115  00000+0  47491-3 0  9995
2 46495  97.8478  15.8144 0011339 199.9887 160.0904 15.19787631240637
ICEYE-X7                
1 46496U 20068L   25043.44759600  .00014071  00000+0  70268-3 0  9992
2 46496  97.6967 349.8506 0008536 229.8861 130.1625 15.17570257240169
ICEYE-X6                
1 46497U 20068M   25043.45038175  .00006448  00000+0  51389-3 0  9993
2 46497  98.0247  12.0207 0003822 326.6165  33.4816 15.00701965239708
KEPLER-4 (ANTILLES)     
1 46499U 20068P   25043.20623719  .00069751  00000+0  93341-3 0  9992
2 46499  97.8173  31.1051 0006295 137.2923 222.8821 15.57767845241691
NETSAT-4                
1 46504U 20068U   25043.19893043  .00019354  00000+0  77286-3 0  9990
2 46504  97.8347  14.9134 0005804 242.6602 117.4044 15.25180742240620
NETSAT-3                
1 46505U 20068V   25042.89688185  .00015991  00000+0  65862-3 0  9996
2 46505  97.8333  13.7852 0005244 260.0442 100.0202 15.24188318240556
NETSAT-1                
1 46506U 20068W   25043.41114136  .00012783  00000+0  58629-3 0  9995
2 46506  97.8359  12.9056 0004751 277.4865  82.5829 15.20577552240530
NETSAT-2                
1 46507U 20068X   25042.90216184  .00017963  00000+0  72297-3 0  9997
2 46507  97.8338  14.1559 0003658 285.8753  74.2080 15.24942652240521
STARLINK-1644           
1 46532U 20070A   25043.50991494  .10921958  12354-4  95787-3 0  9997
2 46532  53.0283  82.8808 0002805  42.5308 132.4535 16.38468972241345
STARLINK-1648           
1 46533U 20070B   25043.24327748  .00000706  00000+0  66274-4 0  9992
2 46533  53.0533 129.4034 0001487  83.3509 276.7649 15.06390256240670
STARLINK-1659           
1 46534U 20070C   25042.91667824  .00131601  00000+0  22963-2 0  9992
2 46534  53.0448 109.2009 0005856 337.3457  28.7577 15.49763000  5944
STARLINK-1663           
1 46535U 20070D   25043.21378068  .00000289  00000+0  38344-4 0  9995
2 46535  53.0546 129.5331 0001693  90.1542 269.9641 15.06390107240669
STARLINK-1672           
1 46537U 20070F   25043.37230170  .00003320  00000+0  24191-3 0  9998
2 46537  53.0535 128.8217 0001466 104.2429 255.8723 15.06361759240388
STARLINK-1678           
1 46538U 20070G   25043.54921340  .00002254  00000+0  17021-3 0  9993
2 46538  53.0530 128.0277 0001527  72.4181 287.6975 15.06386999240409
STARLINK-1687           
1 46541U 20070K   25043.46259546  .00007467  00000+0  51952-3 0  9992
2 46541  53.0573 108.4113 0001843  83.6818 276.4381 15.06409736240966
STARLINK-1692           
1 46542U 20070L   25042.66207854  .00034963  00000+0  19275-2 0  9991
2 46542  53.0532 131.2465 0005410   6.2661 353.8398 15.13678708240577
STARLINK-1693           
1 46543U 20070M   25043.45419163  .00081960  00000+0  24856-2 0  9998
2 46543  53.0587 111.0956 0002815 338.5739  21.5143 15.33425470240959
STARLINK-1694           
1 46544U 20070N   25043.58336806  .00200133  00000+0  35417-2 0  9995
2 46544  53.0455  92.1251 0009608 258.8459 283.3708 15.49052285241213
STARLINK-1696           
1 46545U 20070P   25043.58336806  .00164709  00000+0  25661-2 0  9994
2 46545  53.0540 121.7007 0001607  56.7051  25.7818 15.52817661240794
STARLINK-1697           
1 46546U 20070Q   25043.25001157  .00182789  00000+0  20708-2 0  9992
2 46546  53.0458 104.6842 0007651 312.7200 253.0275 15.61274574240700
